{
  "type": "FeatureCollection",
  "features": [
    {
      "type": "Feature",
      "properties": {
        "norad_id": 15362,
        "name": "NOVA 3",
        "group": "nnss",
        "lat": 37.78493679464599,
        "lon": -99.37525232900433,
        "alt_km": 1193.0021825846634,
        "timestamp": "2025-12-12T07:43:20.781879+00:00",
        "meta_object_name": "NOVA 3",
        "meta_object_id": "1984-110A",
        "meta_epoch": "2025-12-11T20:42:38.702880",
        "meta_mean_motion": 13.23044467,
        "meta_eccentricity": 0.00305589,
        "meta_inclination": 90.1224,
        "meta_ra_of_asc_node": 80.5244,
        "meta_arg_of_pericenter": 334.4175,
        "meta_mean_anomaly": 143.5683,
        "meta_ephemeris_type": 0,
        "meta_classification_type": "U",
        "meta_norad_cat_id": 15362,
        "meta_element_set_no": 999,
        "meta_rev_at_epoch": 98687,
        "meta_bstar": 0.00025405593,
        "meta_mean_motion_dot": 1.15e-06,
        "meta_mean_motion_ddot": 0,
        "tle_line1": "1 15362U 84110A   25345.86294795  .00000115  00000+0  25406-3 0  9996",
        "tle_line2": "2 15362  90.1224  80.5244 0030558 334.4175 143.5683 13.23044467986870"
      },
      "geometry": {
        "type": "Point",
        "coordinates": [
          -99.37525232900433,
          37.78493679464599
        ]
      }
    },
    {
      "type": "Feature",
      "properties": {
        "norad_id": 15935,
        "name": "OSCAR 30",
        "group": "nnss",
        "lat": -25.054392578611573,
        "lon": -80.23703941272733,
        "alt_km": 1191.2172858402773,
        "timestamp": "2025-12-12T07:43:20.781890+00:00",
        "meta_object_name": "OSCAR 30",
        "meta_object_id": "1985-066A",
        "meta_epoch": "2025-12-11T20:30:00.567072",
        "meta_mean_motion": 13.36078238,
        "meta_eccentricity": 0.01694171,
        "meta_inclination": 90.1649,
        "meta_ra_of_asc_node": 99.8325,
        "meta_arg_of_pericenter": 86.3773,
        "meta_mean_anomaly": 29.1188,
        "meta_ephemeris_type": 0,
        "meta_classification_type": "U",
        "meta_norad_cat_id": 15935,
        "meta_element_set_no": 999,
        "meta_rev_at_epoch": 96441,
        "meta_bstar": 0.00025191195,
        "meta_mean_motion_dot": 1.5e-06,
        "meta_mean_motion_ddot": 0,
        "tle_line1": "1 15935U 85066A   25345.85417323  .00000150  00000+0  25191-3 0  9996",
        "tle_line2": "2 15935  90.1649  99.8325 0169417  86.3773  29.1188 13.36078238964416"
      },
      "geometry": {
        "type": "Point",
        "coordinates": [
          -80.23703941272733,
          -25.054392578611573
        ]
      }
    },
    {
      "type": "Feature",
      "properties": {
        "norad_id": 15936,
        "name": "OSCAR 24",
        "group": "nnss",
        "lat": -81.45251812837377,
        "lon": 93.4897669261079,
        "alt_km": 1258.85938155836,
        "timestamp": "2025-12-12T07:43:20.781900+00:00",
        "meta_object_name": "OSCAR 24",
        "meta_object_id": "1985-066B",
        "meta_epoch": "2025-12-11T20:07:33.897792",
        "meta_mean_motion": 13.3593562,
        "meta_eccentricity": 0.01704913,
        "meta_inclination": 90.179,
        "meta_ra_of_asc_node": 92.2895,
        "meta_arg_of_pericenter": 92.8556,
        "meta_mean_anomaly": 23.5178,
        "meta_ephemeris_type": 0,
        "meta_classification_type": "U",
        "meta_norad_cat_id": 15936,
        "meta_element_set_no": 999,
        "meta_rev_at_epoch": 96631,
        "meta_bstar": 0.00019952055,
        "meta_mean_motion_dot": 1.21e-06,
        "meta_mean_motion_ddot": 0,
        "tle_line1": "1 15936U 85066B   25345.83858678  .00000121  00000+0  19952-3 0  9993",
        "tle_line2": "2 15936  90.1790  92.2895 0170491  92.8556  23.5178 13.35935620966312"
      },
      "geometry": {
        "type": "Point",
        "coordinates": [
          93.4897669261079,
          -81.45251812837377
        ]
      }
    },
    {
      "type": "Feature",
      "properties": {
        "norad_id": 17070,
        "name": "POLAR BEAR",
        "group": "nnss",
        "lat": 55.2795585629551,
        "lon": -175.6570884179511,
        "alt_km": 962.8053924006463,
        "timestamp": "2025-12-12T07:43:20.781911+00:00",
        "meta_object_name": "POLAR BEAR",
        "meta_object_id": "1986-088A",
        "meta_epoch": "2025-12-12T01:00:29.117952",
        "meta_mean_motion": 13.75250527,
        "meta_eccentricity": 0.00409337,
        "meta_inclination": 89.6174,
        "meta_ra_of_asc_node": 183.8017,
        "meta_arg_of_pericenter": 121.2616,
        "meta_mean_anomaly": 350.2625,
        "meta_ephemeris_type": 0,
        "meta_classification_type": "U",
        "meta_norad_cat_id": 17070,
        "meta_element_set_no": 999,
        "meta_rev_at_epoch": 95969,
        "meta_bstar": 0.00014193527,
        "meta_mean_motion_dot": 1.48e-06,
        "meta_mean_motion_ddot": 0,
        "tle_line1": "1 17070U 86088A   25346.04200368  .00000148  00000+0  14194-3 0  9992",
        "tle_line2": "2 17070  89.6174 183.8017 0040933 121.2616 350.2625 13.75250527959696"
      },
      "geometry": {
        "type": "Point",
        "coordinates": [
          -175.6570884179511,
          55.2795585629551
        ]
      }
    },
    {
      "type": "Feature",
      "properties": {
        "norad_id": 18361,
        "name": "OSCAR 27",
        "group": "nnss",
        "lat": -0.4652683391123585,
        "lon": 79.25974086109727,
        "alt_km": 1147.6089442536704,
        "timestamp": "2025-12-12T07:43:20.781921+00:00",
        "meta_object_name": "OSCAR 27",
        "meta_object_id": "1987-080A",
        "meta_epoch": "2025-12-11T12:05:00.149280",
        "meta_mean_motion": 13.44906405,
        "meta_eccentricity": 0.01028125,
        "meta_inclination": 90.3742,
        "meta_ra_of_asc_node": 79.2261,
        "meta_arg_of_pericenter": 227.3736,
        "meta_mean_anomaly": 131.871,
        "meta_ephemeris_type": 0,
        "meta_classification_type": "U",
        "meta_norad_cat_id": 18361,
        "meta_element_set_no": 999,
        "meta_rev_at_epoch": 87540,
        "meta_bstar": 0.00026683303,
        "meta_mean_motion_dot": 1.69e-06,
        "meta_mean_motion_ddot": 0,
        "tle_line1": "1 18361U 87080A   25345.50347395  .00000169  00000+0  26683-3 0  9990",
        "tle_line2": "2 18361  90.3742  79.2261 0102812 227.3736 131.8710 13.44906405875408"
      },
      "geometry": {
        "type": "Point",
        "coordinates": [
          79.25974086109727,
          -0.4652683391123585
        ]
      }
    },
    {
      "type": "Feature",
      "properties": {
        "norad_id": 18362,
        "name": "OSCAR 29",
        "group": "nnss",
        "lat": 12.56733075427369,
        "lon": 79.63178286342169,
        "alt_km": 1137.0919891286385,
        "timestamp": "2025-12-12T07:43:20.781932+00:00",
        "meta_object_name": "OSCAR 29",
        "meta_object_id": "1987-080B",
        "meta_epoch": "2025-12-11T18:08:47.571360",
        "meta_mean_motion": 13.4444819,
        "meta_eccentricity": 0.010387,
        "meta_inclination": 90.3753,
        "meta_ra_of_asc_node": 79.6943,
        "meta_arg_of_pericenter": 250.0178,
        "meta_mean_anomaly": 265.478,
        "meta_ephemeris_type": 0,
        "meta_classification_type": "U",
        "meta_norad_cat_id": 18362,
        "meta_element_set_no": 999,
        "meta_rev_at_epoch": 87496,
        "meta_bstar": 0.00022945701,
        "meta_mean_motion_dot": 1.45e-06,
        "meta_mean_motion_ddot": 0,
        "tle_line1": "1 18362U 87080B   25345.75610615  .00000145  00000+0  22946-3 0  9998",
        "tle_line2": "2 18362  90.3753  79.6943 0103870 250.0178 265.4780 13.44448190874963"
      },
      "geometry": {
        "type": "Point",
        "coordinates": [
          79.63178286342169,
          12.56733075427369
        ]
      }
    },
    {
      "type": "Feature",
      "properties": {
        "norad_id": 19070,
        "name": "OSCAR 23",
        "group": "nnss",
        "lat": 8.144536818218652,
        "lon": -163.57421307036918,
        "alt_km": 1015.9841391828068,
        "timestamp": "2025-12-12T07:43:20.781942+00:00",
        "meta_object_name": "OSCAR 23",
        "meta_object_id": "1988-033A",
        "meta_epoch": "2025-12-11T23:57:56.968992",
        "meta_mean_motion": 13.27787062,
        "meta_eccentricity": 0.01894747,
        "meta_inclination": 90.3213,
        "meta_ra_of_asc_node": 16.3697,
        "meta_arg_of_pericenter": 181.9809,
        "meta_mean_anomaly": 246.139,
        "meta_ephemeris_type": 0,
        "meta_classification_type": "U",
        "meta_norad_cat_id": 19070,
        "meta_element_set_no": 999,
        "meta_rev_at_epoch": 82243,
        "meta_bstar": 0.00020694446,
        "meta_mean_motion_dot": 1.11e-06,
        "meta_mean_motion_ddot": 0,
        "tle_line1": "1 19070U 88033A   25345.99857603  .00000111  00000+0  20694-3 0  9991",
        "tle_line2": "2 19070  90.3213  16.3697 0189474 181.9809 246.1390 13.27787062822435"
      },
      "geometry": {
        "type": "Point",
        "coordinates": [
          -163.57421307036918,
          8.144536818218652
        ]
      }
    }
  ]
}